{"type": "FeatureCollection", "features": [ {"type": "Feature", "properties": {"norad_id": 37834, "name": "INTELSAT 18 (IS-18)", "group": "intelsat", "lat": 0.02588654635763567, "lon": 100.6663207454921, "alt_km": 35794.2439475418, "timestamp": "2025-12-03T13:52:09.233323+00:00", "meta": {"OBJECT_NAME": "INTELSAT 18 (IS-18)", "OBJECT_ID": "2011-056A", "EPOCH": "2025-12-02T14:38:27.603744", "MEAN_MOTION": 1.00271068, "ECCENTRICITY": 0.00021353, "INCLINATION": 0.0103, "RA_OF_ASC_NODE": 349.7893, "ARG_OF_PERICENTER": 263.574, "MEAN_ANOMALY": 217.9638, "EPHEMERIS_TYPE": 0, "CLASSIFICATION_TYPE": "U", "NORAD_CAT_ID": 37834, "ELEMENT_SET_NO": 999, "REV_AT_EPOCH": 5184, "BSTAR": 0, "MEAN_MOTION_DOT": 7.3e-07, "MEAN_MOTION_DDOT": 0}, "tle": {"line1": "1 37834U 11056A   25336.61004171  .00000073  00000+0  00000+0 0  9995", "line2": "2 37834   0.0103 349.7893 0002135 263.5740 217.9638  1.00271068 51841"}}, "geometry": {"type": "Point", "coordinates": [100.6663207454921, 0.02588654635763567]}}, {"type": "Feature", "properties": {"norad_id": 38098, "name": "INTELSAT 22 (IS-22)", "group": "intelsat", "lat": -0.003297787579205108, "lon": -7.197508940321011, "alt_km": 35784.65987937533, "timestamp": "2025-12-03T13:52:09.233336+00:00", "meta": {"OBJECT_NAME": "INTELSAT 22 (IS-22)", "OBJECT_ID": "2012-011A", "EPOCH": "2025-12-03T03:42:38.697120", "MEAN_MOTION": 1.00271004, "ECCENTRICITY": 0.00019385, "INCLINATION": 0.0132, "RA_OF_ASC_NODE": 94.3442, "ARG_OF_PERICENTER": 180.1944, "MEAN_ANOMALY": 285.4738, "EPHEMERIS_TYPE": 0, "CLASSIFICATION_TYPE": "U", "NORAD_CAT_ID": 38098, "ELEMENT_SET_NO": 999, "REV_AT_EPOCH": 522, "BSTAR": 0, "MEAN_MOTION_DOT": -3.9e-07, "MEAN_MOTION_DDOT": 0}, "tle": {"line1": "1 38098U 12011A   25337.15461455 -.00000039  00000+0  00000+0 0  9995", "line2": "2 38098   0.0132  94.3442 0001938 180.1944 285.4738  1.00271004  5221"}}, "geometry": {"type": "Point", "coordinates": [-7.197508940321011, -0.003297787579205108]}}, {"type": "Feature", "properties": {"norad_id": 38356, "name": "INTELSAT 19 (IS-19)", "group": "intelsat", "lat": 0.026895121042907102, "lon": 86.69228531449525, "alt_km": 35800.62282976326, "timestamp": "2025-12-03T13:52:09.233348+00:00", "meta": {"OBJECT_NAME": "INTELSAT 19 (IS-19)", "OBJECT_ID": "2012-030A", "EPOCH": "2025-12-03T04:16:18.861312", "MEAN_MOTION": 1.00271683, "ECCENTRICITY": 0.00034699, "INCLINATION": 0.0099, "RA_OF_ASC_NODE": 315.9316, "ARG_OF_PERICENTER": 301.8821, "MEAN_ANOMALY": 44.556, "EPHEMERIS_TYPE": 0, "CLASSIFICATION_TYPE": "U", "NORAD_CAT_ID": 38356, "ELEMENT_SET_NO": 999, "REV_AT_EPOCH": 4848, "BSTAR": 0, "MEAN_MOTION_DOT": -3.7e-07, "MEAN_MOTION_DDOT": 0}, "tle": {"line1": "1 38356U 12030A   25337.17799608 -.00000037  00000+0  00000+0 0  9997", "line2": "2 38356   0.0099 315.9316 0003469 301.8821  44.5560  1.00271683 48484"}}, "geometry": {"type": "Point", "coordinates": [86.69228531449525, 0.026895121042907102]}}, {"type": "Feature", "properties": {"norad_id": 38740, "name": "INTELSAT 20 (IS-20)", "group": "intelsat", "lat": 0.012911298552081164, "lon": -10.816096065722231, "alt_km": 35796.73985338322, "timestamp": "2025-12-03T13:52:09.233360+00:00", "meta": {"OBJECT_NAME": "INTELSAT 20 (IS-20)", "OBJECT_ID": "2012-043A", "EPOCH": "2025-12-02T22:40:15.332160", "MEAN_MOTION": 1.00274497, "ECCENTRICITY": 0.0003028, "INCLINATION": 0.0125, "RA_OF_ASC_NODE": 336.6425, "ARG_OF_PERICENTER": 218.4136, "MEAN_ANOMALY": 285.5325, "EPHEMERIS_TYPE": 0, "CLASSIFICATION_TYPE": "U", "NORAD_CAT_ID": 38740, "ELEMENT_SET_NO": 999, "REV_AT_EPOCH": 4878, "BSTAR": 0, "MEAN_MOTION_DOT": 0, "MEAN_MOTION_DDOT": 0}, "tle": {"line1": "1 38740U 12043A   25336.94462190  .00000000  00000+0  00000+0 0  9994", "line2": "2 38740   0.0125 336.6425 0003028 218.4136 285.5325  1.00274497 48780"}}, "geometry": {"type": "Point", "coordinates": [-10.816096065722231, 0.012911298552081164]}}, {"type": "Feature", "properties": {"norad_id": 38749, "name": "INTELSAT 21 (IS-21)", "group": "intelsat", "lat": -0.04154007218991157, "lon": -137.33154698212, "alt_km": 35777.16861340414, "timestamp": "2025-12-03T13:52:09.233372+00:00", "meta": {"OBJECT_NAME": "INTELSAT 21 (IS-21)", "OBJECT_ID": "2012-045A", "EPOCH": "2025-12-03T06:37:50.300832", "MEAN_MOTION": 1.0026908, "ECCENTRICITY": 0.00024493, "INCLINATION": 0.0166, "RA_OF_ASC_NODE": 324.171, "ARG_OF_PERICENTER": 279.0917, "MEAN_ANOMALY": 230.5677, "EPHEMERIS_TYPE": 0, "CLASSIFICATION_TYPE": "U", "NORAD_CAT_ID": 38749, "ELEMENT_SET_NO": 999, "REV_AT_EPOCH": 4856, "BSTAR": 0, "MEAN_MOTION_DOT": -2.66e-06, "MEAN_MOTION_DDOT": 0}, "tle": {"line1": "1 38749U 12045A   25337.27627663 -.00000266  00000+0  00000+0 0  9995", "line2": "2 38749   0.0166 324.1710 0002449 279.0917 230.5677  1.00269080 48567"}}, "geometry": {"type": "Point", "coordinates": [-137.33154698212, -0.04154007218991157]}}, {"type": "Feature", "properties": {"norad_id": 38867, "name": "INTELSAT 23 (IS-23)", "group": "intelsat", "lat": -0.013099453213510992, "lon": -132.3203453046078, "alt_km": 35779.28525621443, "timestamp": "2025-12-03T13:52:09.233384+00:00", "meta": {"OBJECT_NAME": "INTELSAT 23 (IS-23)", "OBJECT_ID": "2012-057A", "EPOCH": "2025-12-03T05:47:17.534688", "MEAN_MOTION": 1.00270034, "ECCENTRICITY": 0.00017681, "INCLINATION": 0.0462, "RA_OF_ASC_NODE": 118.4792, "ARG_OF_PERICENTER": 97.6452, "MEAN_ANOMALY": 250.0312, "EPHEMERIS_TYPE": 0, "CLASSIFICATION_TYPE": "U", "NORAD_CAT_ID": 38867, "ELEMENT_SET_NO": 999, "REV_AT_EPOCH": 4799, "BSTAR": 0, "MEAN_MOTION_DOT": -2.66e-06, "MEAN_MOTION_DDOT": 0}, "tle": {"line1": "1 38867U 12057A   25337.24117517 -.00000266  00000+0  00000+0 0  9998", "line2": "2 38867   0.0462 118.4792 0001768  97.6452 250.0312  1.00270034 47992"}}, "geometry": {"type": "Point", "coordinates": [-132.3203453046078, -0.013099453213510992]}}, {"type": "Feature", "properties": {"norad_id": 39360, "name": "FM-6", "group": "intelsat", "lat": 0.010052890126991308, "lon": 164.51310700340971, "alt_km": 35774.867829611874, "timestamp": "2025-12-03T13:52:09.233396+00:00", "meta": {"OBJECT_NAME": "FM-6", "OBJECT_ID": "2013-058A", "EPOCH": "2025-12-03T06:21:14.391360", "MEAN_MOTION": 1.0026997, "ECCENTRICITY": 0.00028249, "INCLINATION": 0.0051, "RA_OF_ASC_NODE": 102.0292, "ARG_OF_PERICENTER": 71.1504, "MEAN_ANOMALY": 238.3284, "EPHEMERIS_TYPE": 0, "CLASSIFICATION_TYPE": "U", "NORAD_CAT_ID": 39360, "ELEMENT_SET_NO": 999, "REV_AT_EPOCH": 4410, "BSTAR": 0, "MEAN_MOTION_DOT": 2e-08, "MEAN_MOTION_DDOT": 0}, "tle": {"line1": "1 39360U 13058A   25337.26474990  .00000002  00000+0  00000+0 0  9999", "line2": "2 39360   0.0051 102.0292 0002824  71.1504 238.3284  1.00269970 44102"}}, "geometry": {"type": "Point", "coordinates": [164.51310700340971, 0.010052890126991308]}}, {"type": "Feature", "properties": {"norad_id": 40271, "name": "INTELSAT 30 (IS-30)", "group": "intelsat", "lat": -0.011041352097322437, "lon": -174.3603155713664, "alt_km": 35787.75455246824, "timestamp": "2025-12-03T13:52:09.233408+00:00", "meta": {"OBJECT_NAME": "INTELSAT 30 (IS-30)", "OBJECT_ID": "2014-062A", "EPOCH": "2025-12-03T04:44:31.157376", "MEAN_MOTION": 1.00269853, "ECCENTRICITY": 0.0001174, "INCLINATION": 0.0142, "RA_OF_ASC_NODE": 7.7853, "ARG_OF_PERICENTER": 75.0467, "MEAN_ANOMALY": 325.5387, "EPHEMERIS_TYPE": 0, "CLASSIFICATION_TYPE": "U", "NORAD_CAT_ID": 40271, "ELEMENT_SET_NO": 999, "REV_AT_EPOCH": 481, "BSTAR": 0, "MEAN_MOTION_DOT": -1.32e-06, "MEAN_MOTION_DDOT": 0}, "tle": {"line1": "1 40271U 14062A   25337.19758284 -.00000132  00000+0  00000+0 0  9996", "line2": "2 40271   0.0142   7.7853 0001174  75.0467 325.5387  1.00269853  4815"}}, "geometry": {"type": "Point", "coordinates": [-174.3603155713664, -0.011041352097322437]}}, {"type": "Feature", "properties": {"norad_id": 40333, "name": "DIRECTV 14", "group": "intelsat", "lat": -0.026875164950086048, "lon": -178.5463019799262, "alt_km": 35785.724455738, "timestamp": "2025-12-03T13:52:09.233420+00:00", "meta": {"OBJECT_NAME": "DIRECTV 14", "OBJECT_ID": "2014-078B", "EPOCH": "2025-12-03T06:48:38.769120", "MEAN_MOTION": 1.00269012, "ECCENTRICITY": 3.065e-05, "INCLINATION": 0.0189, "RA_OF_ASC_NODE": 328.0203, "ARG_OF_PERICENTER": 240.423, "MEAN_ANOMALY": 226.8733, "EPHEMERIS_TYPE": 0, "CLASSIFICATION_TYPE": "U", "NORAD_CAT_ID": 40333, "ELEMENT_SET_NO": 999, "REV_AT_EPOCH": 4007, "BSTAR": 0, "MEAN_MOTION_DOT": -1.06e-06, "MEAN_MOTION_DDOT": 0}, "tle": {"line1": "1 40333U 14078B   25337.28378205 -.00000106  00000+0  00000+0 0  9994", "line2": "2 40333   0.0189 328.0203 0000306 240.4230 226.8733  1.00269012 40078"}}, "geometry": {"type": "Point", "coordinates": [-178.5463019799262, -0.026875164950086048]}}, {"type": "Feature", "properties": {"norad_id": 40663, "name": "DIRECTV 15", "group": "intelsat", "lat": 0.010941172033834046, "lon": 177.79889741019056, "alt_km": 35786.442915151645, "timestamp": "2025-12-03T13:52:09.233431+00:00", "meta": {"OBJECT_NAME": "DIRECTV 15", "OBJECT_ID": "2015-026A", "EPOCH": "2025-12-02T15:00:23.376384", "MEAN_MOTION": 1.00270418, "ECCENTRICITY": 2.986e-05, "INCLINATION": 0.0433, "RA_OF_ASC_NODE": 100.4968, "ARG_OF_PERICENTER": 166.0499, "MEAN_ANOMALY": 287.4051, "EPHEMERIS_TYPE": 0, "CLASSIFICATION_TYPE": "U", "NORAD_CAT_ID": 40663, "ELEMENT_SET_NO": 999, "REV_AT_EPOCH": 3849, "BSTAR": 0, "MEAN_MOTION_DOT": -8.2e-07, "MEAN_MOTION_DDOT": 0}, "tle": {"line1": "1 40663U 15026A   25336.62527056 -.00000082  00000+0  00000+0 0  9994", "line2": "2 40663   0.0433 100.4968 0000298 166.0499 287.4051  1.00270418 38497"}}, "geometry": {"type": "Point", "coordinates": [177.79889741019056, 0.010941172033834046]}}]}